#aV2006  6 12  0  0   .00000000      96 DD+AD WGS84 FIT  NGA
## 1379  86400.00000000   900.00000000 53898  .0000000000000
+   29     1  2  3  4  5  6  7  8  9 10 11 13 14 15 16 17 18
+         19 20 21 22 23 24 25 26 27 28 29 30  0  0  0  0  0
+          0  0  0  0  0  0  0  0  0  0  0  0  0  0  0  0  0
+          0  0  0  0  0  0  0  0  0  0  0  0  0  0  0  0  0
+          0  0  0  0  0  0  0  0  0  0  0  0  0  0  0  0  0
++         0  0  0  0  0  0  0  0  0  0  0  0  0  0  0  0  0
++         0  0  0  0  0  0  0  0  0  0  0  0  0  0  0  0  0
++         0  0  0  0  0  0  0  0  0  0  0  0  0  0  0  0  0
++         0  0  0  0  0  0  0  0  0  0  0  0  0  0  0  0  0
++         0  0  0  0  0  0  0  0  0  0  0  0  0  0  0  0  0
%c cc cc ccc ccc cccc cccc cccc cccc ccccc ccccc ccccc ccccc
%c cc cc ccc ccc cccc cccc cccc cccc ccccc ccccc ccccc ccccc
%f  0.0000000  0.000000000  0.00000000000  0.000000000000000
%f  0.0000000  0.000000000  0.00000000000  0.000000000000000
%i    0    0    0    0      0      0      0      0         0
%i    0    0    0    0      0      0      0      0         0
/*      NGA, ST. LOUIS,MO.                                  
/*   EPHEMERIS COMPUTED FROM  3 DAYS OF DATA                
/* CCCCCCCCCCCCCCCCCCCCCCCCCCCCCCCCCCCCCCCCCCCCCCCCCCCCCCCCC
/* CCCCCCCCCCCCCCCCCCCCCCCCCCCCCCCCCCCCCCCCCCCCCCCCCCCCCCCCC
*  2006  6 12  0 30   .00000000                                                 
P  1  15507.305885 -20310.879448  -6953.279093     58.906986                    
V  1  -2402.044752   8963.567617 -30735.185334       .026790                    
P  2 -17721.116656  12435.159409  14988.105159      4.222695                    
V  2 -19743.679858   -607.514959 -22666.053372       .031000                    
P  3  11125.239025 -23658.795781   3452.124841    106.062694                    
V  3   2365.305893   5764.773302  30740.262398       .030337                    
P  4 -25408.642305   6025.280439   5743.767958    251.667223                    
V  4  -7466.947503  -2211.541898 -30167.613155       .084856                    
P  5  11585.240270  22748.796408  -7834.547407    113.403968                    
V  5  -8613.451706  -5397.150727 -28985.283598       .441681                    
P  6  11382.725886  12454.251768  20696.266186    560.815749                    
V  6 -10981.911438  23538.593493  -8275.593989       .130514                    
P  7  17715.935728 -10581.693904  17133.338683    541.061550                    
V  7  -5800.269323  20426.941237  18868.140277       .008757                    
P  8 -26690.226891    -70.957271   2091.282916    -68.630955                    
V  8   2687.011888  -2203.307009  31625.028779      -.012551                    
P  9   3835.343961  15062.290097 -22103.741620     23.925675                    
V  9 -26508.365923   3512.106610  -1986.333140       .013800                    
P 10  -4746.913724  16924.018804  19715.350115     84.893262                    
V 10 -15182.762686 -20288.245580  13991.260257       .006570                    
P 11  -6728.892558 -15345.465157 -20693.908686    332.854888                    
V 11  25549.405127  -6648.519560  -3135.317840       .023048                    
P 13  -9776.475955 -11974.973665  21516.164480     68.755132                    
V 13  12500.910780 -24431.913234  -7828.183526       .029133                    
P 14  17262.887312  -7630.758776 -18599.619916    -12.154889                    
V 14  -9162.832840  21896.534386 -17479.111261       .008009                    
P 15  26719.459901    677.166436   1622.961161    627.233707                    
V 15  -2175.812653   2623.530224  31315.331512       .058758                    
P 16   9259.852310 -12831.847125  21404.818319     48.941280                    
V 16  15871.950950  21833.686633   6356.388996       .026154                    
P 17 -17507.992148   6309.783114 -18919.375325     98.016987                    
V 17   8758.539630 -22442.753220 -15689.831840       .016085                    
P 18  18727.186069  16226.062028  -9876.925873   -238.988318                    
V 18   4814.867014  11879.218064  28046.818258      -.014515                    
P 19   6305.621593 -24317.461215  -8432.123437     -5.891286                    
V 19   7563.529223  -8287.568623  29226.768354       .021420                    
P 20 -12656.561081 -22948.753175  -4509.725708    -25.541410                    
V 20   5581.531610   2884.691473 -30966.724318       .005193                    
P 21  24031.806443   6138.453371  10271.721369     34.928005                    
V 21 -12646.111579   3226.633418  27296.056130       .024879                    
P 22  18041.984856   3284.801406 -19066.049266    105.662321                    
V 22  11914.658120  21508.613832  14848.385509       .038932                    
P 23  -2100.607345 -21212.795603  15643.637224    139.782046                    
V 23  10135.036802 -17451.786575 -22325.157331      -.006217                    
P 24 -26395.494540  -1421.195342  -3575.988815     12.672663                    
V 24   4682.507473  -2790.850187 -31139.826563       .026641                    
P 25  21806.450950 -11561.955366  10389.795224    257.581546                    
V 25  12815.402510     99.661469 -27727.494120       .771140                    
P 26  -7290.770351  24458.486406  -6519.725430   -143.945015                    
V 26  -5464.240828   6078.121289  31341.338416      -.122078                    
P 27 -23223.537790  -5392.516706  12644.413797     52.983535                    
V 27  14514.627241  -4216.135282  25800.371619       .017815                    
P 28 -19158.949358  -7275.092404 -16790.236502     25.461094                    
V 28 -10839.844468 -18927.814118  19882.964391      -.008015                    
P 29  -9615.643055  24494.498163  -1963.910983    618.241842                    
V 29  -3183.691976   1626.829797  32382.193646       .047503                    
P 30  17991.561449  19226.654542   3657.380336       .513052                    
V 30    457.894964   5915.771793 -30852.051979       .010871                    
EOF
